OBJECT_NAME,OBJECT_ID,EPOCH,MEAN_MOTION,ECCENTRICITY,INCLINATION,RA_OF_ASC_NODE,ARG_OF_PERICENTER,MEAN_ANOMALY,EPHEMERIS_TYPE,CLASSIFICATION_TYPE,NORAD_CAT_ID,ELEMENT_SET_NO,REV_AT_EPOCH,BSTAR,MEAN_MOTION_DOT,MEAN_MOTION_DDOT
MEV-2,2020-056B,2026-03-01T09:00:55.805760,1.00270198,.0001053,0.0167,118.2976,244.9884,290.0998,0,U,46113,999,7947,0,-.3E-6,0
GALAXY 30 (G-30),2020-056C,2026-03-01T09:45:39.199680,1.00271297,.0002071,0.0191,126.8337,227.9721,185.7736,0,U,46114,999,2021,0,.19E-6,0
GAOFEN-13 01,2020-071A,2026-03-01T11:17:27.716352,1.00276046,.0043153,0.2426,85.7664,120.2136,240.8334,0,U,46610,999,1983,0,-.381E-5,0
TIANTONG-1 2,2020-082A,2026-03-01T11:19:35.012064,1.00275439,.0003557,0.9558,314.5460,18.6988,120.8491,0,U,46916,999,1957,0,-.374E-5,0
LUCAS (JDRS-1),2020-089A,2026-03-01T12:12:21.345696,1.00273837,.0002864,0.0677,275.0157,59.1720,98.9378,0,U,47202,999,1933,0,-.254E-5,0
SXM-7,2020-096A,2026-03-01T06:54:15.451776,1.00274193,.0004058,0.0190,122.6179,7.0694,47.7606,0,U,47240,999,636,0,-.224E-5,0
CMS-01,2020-099A,2026-03-01T12:08:54.221568,1.00272393,.0006654,0.0131,141.1846,146.8265,136.4874,0,U,47256,999,1911,0,-.183E-5,0
TURKSAT 5A,2021-001A,2026-03-01T07:27:19.781568,1.00271042,.0000192,0.0176,101.0270,152.7966,48.0316,0,U,47306,999,1888,0,.136E-5,0
TIANTONG-1 3,2021-003A,2026-03-01T09:24:31.046400,1.00269927,.0006673,1.8568,332.9258,339.8700,69.0227,0,U,47321,999,1888,0,-.171E-5,0
TJS-6,2021-010A,2026-03-01T11:34:48.552096,1.00269575,.0003164,0.3212,90.9169,281.3795,139.1668,0,U,47613,999,1873,0,.24E-6,0
SBIRS GEO-5 (USA 315),2021-042A,2026-03-01T12:17:46.654656,1.00271564,.0001621,5.2407,328.3173,351.4038,117.8016,0,U,48618,999,1769,0,-.283E-5,0
FENGYUN 4B,2021-047A,2026-03-01T11:13:43.074624,1.00266209,.0008805,0.1845,76.7193,296.1014,59.4347,0,U,48808,999,1748,0,-.347E-5,0
SXM-8,2021-049A,2026-03-01T06:54:15.451776,1.00274328,.0004197,0.0240,63.1048,340.6734,133.6892,0,U,48838,999,1751,0,-.224E-5,0
TIANLIAN 1-05,2021-063A,2026-03-01T05:40:37.512192,1.00270844,.0004784,1.3152,81.6034,225.2259,314.1110,0,U,49011,999,1699,0,.89E-6,0
STAR ONE D2,2021-069A,2026-03-01T03:06:38.647008,1.00274803,.00009877,0.0176,127.3262,190.1968,178.0641,0,U,49055,999,1685,0,-.283E-5,0
EUTELSAT QUANTUM,2021-069B,2026-03-01T10:57:29.630016,1.00270815,.0002918,0.0174,127.2671,211.6428,32.4298,0,U,49056,999,1684,0,0,0
ZHONGXING-2E,2021-071A,2026-03-01T12:20:18.145824,1.00267922,.0000148,0.0207,120.2375,352.3359,329.8172,0,U,49062,999,1695,0,-.309E-5,0
TJS-7,2021-077A,2026-03-01T13:11:32.064288,1.00269715,.0001703,0.2296,88.4032,258.3888,270.8915,0,U,49115,999,847,0,-.141E-5,0
CHINASAT 9B,2021-080A,2026-03-01T12:20:27.438144,1.00272781,.0002238,0.0399,270.4366,44.8220,130.5654,0,U,49125,999,1656,0,-.331E-5,0
SES-17,2021-095A,2026-03-01T10:24:40.277664,1.00271547,.0000666,0.0229,63.5171,245.4822,299.2788,0,U,49332,999,1677,0,-.29E-5,0
SYRACUSE 4A,2021-095B,2026-03-01T05:48:44.235360,1.00269680,.0001516,0.0279,141.9583,205.2673,304.5111,0,U,49333,999,1686,0,0,0
ZHONGXING-1D,2021-114A,2026-03-01T11:20:57.380640,1.00273641,.0002929,0.0406,291.8505,297.6232,230.1657,0,U,49505,999,1574,0,-.355E-5,0
STPSAT-6,2021-118A,2026-03-01T10:11:56.498208,1.00269488,.0002837,0.0434,89.4150,228.1248,242.8676,0,U,49817,999,1549,0,-.63E-6,0
EXPRESS AMU-7,2021-123A,2026-03-01T12:03:38.784672,1.00271981,.0000553,0.0170,229.3371,45.2598,210.5917,0,U,50001,999,1546,0,-.261E-5,0
EXPRESS AMU-3,2021-123B,2026-03-01T06:32:07.729152,1.00270388,.000014,0.0161,162.5035,292.7854,264.7127,0,U,50002,999,594,0,0,0
TIANLIAN 2-02,2021-124A,2026-02-28T21:51:11.225376,1.00271299,.0004935,0.5204,88.2949,204.8136,4.3421,0,U,50005,999,1553,0,-.33E-6,0
TURKSAT 5B,2021-126A,2026-03-01T05:20:38.853024,1.00271549,.0005534,0.0748,327.6588,359.0918,314.3891,0,U,50212,999,1521,0,.128E-5,0
INMARSAT 6-F1,2021-128A,2026-03-01T09:25:08.486112,1.00272538,.0000211,0.0071,125.7988,190.5799,67.8331,0,U,50319,999,1517,0,-.19E-5,0
SHIYAN-12 01 (SY-12 01),2021-129A,2026-03-01T18:24:01.155456,1.00096552,.0003824,3.3972,81.3919,244.7396,249.7789,0,U,50321,999,1542,0,-.319E-5,0
SHIYAN-12 02 (SY-12 02),2021-129B,2026-03-01T15:59:21.740640,1.00091980,.0003582,3.3973,81.4107,220.8573,122.9347,0,U,50322,999,1541,0,.11E-5,0
TJS-9,2021-135A,2026-03-01T12:03:38.784672,1.00268164,.0004127,0.0276,118.8803,34.4843,324.0199,0,U,50574,999,1535,0,-.318E-5,0
