MEV-2                   
1 46113U 20056B   26060.37564590 -.00000030  00000+0  00000+0 0  9993
2 46113   0.0167 118.2976 0001053 244.9884 290.0998  1.00270198 79475
GALAXY 30 (G-30)        
1 46114U 20056C   26060.40670370  .00000019  00000+0  00000+0 0  9998
2 46114   0.0191 126.8337 0002071 227.9721 185.7736  1.00271297 20210
GAOFEN-13 01            
1 46610U 20071A   26060.47045968 -.00000381  00000+0  00000+0 0  9995
2 46610   0.2426  85.7664 0043153 120.2136 240.8334  1.00276046 19831
TIANTONG-1 2            
1 46916U 20082A   26060.47193301 -.00000374  00000+0  00000+0 0  9993
2 46916   0.9558 314.5460 0003557  18.6988 120.8491  1.00275439 19576
LUCAS (JDRS-1)          
1 47202U 20089A   26060.50858039 -.00000254  00000+0  00000+0 0  9996
2 47202   0.0677 275.0157 0002864  59.1720  98.9378  1.00273837 19339
SXM-7                   
1 47240U 20096A   26060.28767884 -.00000224  00000+0  00000+0 0  9995
2 47240   0.0190 122.6179 0004058   7.0694  47.7606  1.00274193  6362
CMS-01                  
1 47256U 20099A   26060.50618312 -.00000183  00000+0  00000+0 0  9995
2 47256   0.0131 141.1846 0006654 146.8265 136.4874  1.00272393 19111
TURKSAT 5A              
1 47306U 21001A   26060.31064562  .00000136  00000+0  00000+0 0  9993
2 47306   0.0176 101.0270 0000192 152.7966  48.0316  1.00271042 18889
TIANTONG-1 3            
1 47321U 21003A   26060.39202600 -.00000171  00000+0  00000+0 0  9997
2 47321   1.8568 332.9258 0006673 339.8700  69.0227  1.00269927 18888
TJS-6                   
1 47613U 21010A   26060.48250639  .00000024  00000+0  00000+0 0  9990
2 47613   0.3212  90.9169 0003164 281.3795 139.1668  1.00269575 18732
SBIRS GEO-5 (USA 315)   
1 48618U 21042A   26060.51234554 -.00000283  00000+0  00000+0 0  9991
2 48618   5.2407 328.3173 0001621 351.4038 117.8016  1.00271564 17691
FENGYUN 4B              
1 48808U 21047A   26060.46785966 -.00000347  00000+0  00000+0 0  9990
2 48808   0.1845  76.7193 0008805 296.1014  59.4347  1.00266209 17483
SXM-8                   
1 48838U 21049A   26060.28767884 -.00000224  00000+0  00000+0 0  9998
2 48838   0.0240  63.1048 0004197 340.6734 133.6892  1.00274328 17512
TIANLIAN 1-05           
1 49011U 21063A   26060.23654528  .00000089  00000+0  00000+0 0  9991
2 49011   1.3152  81.6034 0004784 225.2259 314.1110  1.00270844 16993
STAR ONE D2             
1 49055U 21069A   26060.12961397 -.00000283  00000+0  00000+0 0  9995
2 49055   0.0176 127.3262 0000987 190.1968 178.0641  1.00274803 16852
EUTELSAT QUANTUM        
1 49056U 21069B   26060.45659294  .00000000  00000+0  00000+0 0  9998
2 49056   0.0174 127.2671 0002918 211.6428  32.4298  1.00270815 16849
ZHONGXING-2E            
1 49062U 21071A   26060.51409891 -.00000309  00000+0  00000+0 0  9994
2 49062   0.0207 120.2375 0000148 352.3359 329.8172  1.00267922 16957
TJS-7                   
1 49115U 21077A   26060.54967667 -.00000141  00000+0  00000+0 0  9996
2 49115   0.2296  88.4032 0001703 258.3888 270.8915  1.00269715  8471
CHINASAT 9B             
1 49125U 21080A   26060.51420646 -.00000331  00000+0  00000+0 0  9990
2 49125   0.0399 270.4366 0002238  44.8220 130.5654  1.00272781 16567
SES-17                  
1 49332U 21095A   26060.43379951 -.00000290  00000+0  00000+0 0  9993
2 49332   0.0229  63.5171 0000666 245.4822 299.2788  1.00271547 16777
SYRACUSE 4A             
1 49333U 21095B   26060.24217865  .00000000  00000+0  00000+0 0  9996
2 49333   0.0279 141.9583 0001516 205.2673 304.5111  1.00269680 16869
ZHONGXING-1D            
1 49505U 21114A   26060.47288635 -.00000355  00000+0  00000+0 0  9991
2 49505   0.0406 291.8505 0002929 297.6232 230.1657  1.00273641 15743
STPSAT-6                
1 49817U 21118A   26060.42495947 -.00000063  00000+0  00000+0 0  9998
2 49817   0.0434  89.4150 0002837 228.1248 242.8676  1.00269488 15498
EXPRESS AMU-7           
1 50001U 21123A   26060.50253223 -.00000261  00000+0  00000+0 0  9999
2 50001   0.0170 229.3371 0000553  45.2598 210.5917  1.00271981 15469
EXPRESS AMU-3           
1 50002U 21123B   26060.27231168  .00000000  00000+0  00000+0 0  9998
2 50002   0.0161 162.5035 0000140 292.7854 264.7127  1.00270388  5947
TIANLIAN 2-02           
1 50005U 21124A   26059.91054659 -.00000033  00000+0  00000+0 0  9996
2 50005   0.5204  88.2949 0004935 204.8136   4.3421  1.00271299 15537
TURKSAT 5B              
1 50212U 21126A   26060.22267191  .00000128  00000+0  00000+0 0  9995
2 50212   0.0748 327.6588 0005534 359.0918 314.3891  1.00271549 15219
INMARSAT 6-F1           
1 50319U 21128A   26060.39245933 -.00000190  00000+0  00000+0 0  9993
2 50319   0.0071 125.7988 0000211 190.5799  67.8331  1.00272538 15172
SHIYAN-12 01 (SY-12 01) 
1 50321U 21129A   26060.76668004 -.00000319  00000+0  00000+0 0  9999
2 50321   3.3972  81.3919 0003824 244.7396 249.7789  1.00096552 15426
SHIYAN-12 02 (SY-12 02) 
1 50322U 21129B   26060.66622385  .00000110  00000+0  00000+0 0  9999
2 50322   3.3973  81.4107 0003582 220.8573 122.9347  1.00091980 15412
TJS-9                   
1 50574U 21135A   26060.50253223 -.00000318  00000+0  00000+0 0  9990
2 50574   0.0276 118.8803 0004127  34.4843 324.0199  1.00268164 15357
